#aV2010  4 24  0  0   .00000000      96 DD+AD WGS84 FIT  NGA
## 1580 518400.00000000   900.00000000 55310  .0000000000000
+   31     1  2  3  4  5  6  7  8  9 10 11 12 13 14 15 16 17
+         18 19 20 21 22 23 24 26 27 28 29 30 31 32  0  0  0
+          0  0  0  0  0  0  0  0  0  0  0  0  0  0  0  0  0
+          0  0  0  0  0  0  0  0  0  0  0  0  0  0  0  0  0
+          0  0  0  0  0  0  0  0  0  0  0  0  0  0  0  0  0
++         0  0  0  0  0  0  0  0  0  0  0  0  0  0  0  0  0
++         0  0  0  0  0  0  0  0  0  0  0  0  0  0  0  0  0
++         0  0  0  0  0  0  0  0  0  0  0  0  0  0  0  0  0
++         0  0  0  0  0  0  0  0  0  0  0  0  0  0  0  0  0
++         0  0  0  0  0  0  0  0  0  0  0  0  0  0  0  0  0
%c cc cc ccc ccc cccc cccc cccc cccc ccccc ccccc ccccc ccccc
%c cc cc ccc ccc cccc cccc cccc cccc ccccc ccccc ccccc ccccc
%f  0.0000000  0.000000000  0.00000000000  0.000000000000000
%f  0.0000000  0.000000000  0.00000000000  0.000000000000000
%i    0    0    0    0      0      0      0      0         0
%i    0    0    0    0      0      0      0      0         0
/*      NGA, ST. LOUIS,MO.                                  
/*   EPHEMERIS COMPUTED FROM  3 DAYS OF DATA                
/* CCCCCCCCCCCCCCCCCCCCCCCCCCCCCCCCCCCCCCCCCCCCCCCCCCCCCCCCC
/* CCCCCCCCCCCCCCCCCCCCCCCCCCCCCCCCCCCCCCCCCCCCCCCCCCCCCCCCC
*  2010  4 24  0 30   .00000000                                                 
P  1  21293.031065   8670.892102  13334.421221   -112.584984                    
V  1  10373.637262  13676.187417 -25103.330881      -.040836                    
P  2 -18532.558619  14125.943871  12277.503877    249.322979                    
V  2 -16148.473826    951.391931 -25856.727312       .035877                    
P  3   9989.998446 -22869.152827   8211.040102    545.898725                    
V  3   2100.113489  11558.244926  28742.893291       .050299                    
P  4 -26180.743380   5423.874425  -1261.125892     66.757257                    
V  4    600.660488  -3405.001453 -30990.195008       .084492                    
P  5  -7341.981845  13960.530057  21338.485230     -1.944342                    
V  5 -19289.225668 -19131.574551   5957.086480      -.002527                    
P  6  13562.804345 -19610.464248  11737.705976    658.729452                    
V  6   -367.354793  15057.388842  26124.452562      -.099371                    
P  7 -17939.869145  -8195.206822  17856.789191       .196584                    
V  7  21648.053446  -6646.532442  18528.275710      -.004028                    
P  8 -25560.094643   -943.549088   8095.698877      5.062582                    
V  8   9765.135183  -2962.761826  29915.912646       .001362                    
P  9  -2712.278983  15822.943151 -21693.364935      2.583675                    
V  9 -25418.257825   6508.872313   8178.422063       .021316                    
P 10 -14934.006621   5807.989115  21045.714795    -41.035020                    
V 10 -17947.020115 -20346.676257  -6716.769576      -.009451                    
P 11  -4063.468558 -16638.336086 -20521.212876    -58.356382                    
V 11  23437.173468 -10982.909769   4688.506892      -.023453                    
P 12   9340.917832  21856.441096 -11957.160493   -123.186665                    
V 12 -11888.459165  -9674.581740 -26702.600711       .043647                    
P 13  -7163.040943 -16775.698688  19157.291120    305.072516                    
V 13   9328.831518 -22733.106349 -16320.562227      -.003098                    
P 14  15768.820902  -3248.575664 -20963.542173     37.549871                    
V 14  -8026.154743  25672.820065 -10072.560719       .045297                    
P 15  -6376.177979  25703.284298   -860.971085   -282.688026                    
V 15  -3324.835581    248.916692  31650.770203       .050700                    
P 16  12602.158126  -8372.185920  21891.337454    -64.602227                    
V 16  18535.719054  20495.731906  -2568.281621      -.038472                    
P 17 -16092.246080   2540.079002 -20833.796448    146.304075                    
V 17   7172.396971 -25773.626716  -8846.253366       .025714                    
P 18  19834.782160  17500.410170  -3816.852322     63.817733                    
V 18   1109.166803   5943.399444  30496.773789       .024868                    
P 19   7642.256293 -25143.110502  -2432.154816    -30.151126                    
V 19   4078.211644  -1840.135548  31683.372569      -.026286                    
P 20 -11858.188583 -21726.824365  -9839.625676     57.233616                    
V 20  10962.585528   6420.986895 -27725.230318      -.006461                    
P 21  21615.697122   6310.163595  14884.698334    -55.503090                    
V 21 -17210.321821   6203.364162  22235.319930      -.025698                    
P 22  21059.407532   7681.801253 -14152.071232    173.731642                    
V 22  10281.499994  15346.593738  23277.071719      -.007922                    
P 23  -2209.811193 -23055.254046  12684.294422    373.235573                    
V 23   6903.648392 -14904.959300 -26134.274432      -.012902                    
P 24  23797.226146   3512.667623  11099.945911    281.606851                    
V 24 -13265.951571   5474.761984  27157.628134       .030424                    
P 26   2947.295498  21559.466257 -15434.050428    -43.113180                    
V 26  -7787.210382  17139.417603  23707.289172      -.047092                    
P 27  -6248.673717  15765.844129 -19718.618052    145.769590                    
V 27 -25750.834858   6611.075191  13143.636687       .033594                    
P 28 -20869.280947 -10639.156982 -12314.256756    -17.838480                    
V 28  -9351.182135 -13473.324505  26190.046145       .009148                    
P 29   7756.082752  17692.814249  18341.704729    114.879793                    
V 29  -8531.407233  21498.518778 -17180.971027       .028911                    
P 30  17504.154601  19820.402548  -3188.238531    236.410212                    
V 30  -4570.559636   -380.864612 -31260.706874       .034344                    
P 31  25603.194156  -7301.439868   1539.021617    -40.504777                    
V 31   2147.729034   1688.788834 -31911.670585       .021133                    
P 32  -3049.339581 -21182.944116 -15597.952289     44.730614                    
V 32  14213.864226  14620.997159 -21821.346875      -.085447                    
EOF
